     2.11           N: GPS NAV DATA                         RINEX VERSION / TYPE
teqc  2018Jan11                         20181009 00:30:03UTCPGM / RUN BY / DATE
Linux 2.4.21-27.ELsmp|Opteron|gcc -static|Linux 64|=+       COMMENT
     2              NAVIGATION DATA                         COMMENT
CCRINEXN V1.6.0 UX  CDDIS               08-OCT-18 20:09     COMMENT
IGS BROADCAST EPHEMERIS FILE                                COMMENT
    1.1180D-08  0.0000D+00 -5.9600D-08  0.0000D+00          ION ALPHA
    9.0110D+04  0.0000D+00 -1.9660D+05  0.0000D+00          ION BETA
   -1.862645149230D-09-2.664535259100D-15   319488     2022 DELTA-UTC: A0,A1,T,W
                                                            END OF HEADER
30 18 10  8  6  0  0.0 1.328857615590D-05-5.456968210640D-12 0.000000000000D+00
    1.130000000000D+02 3.950000000000D+01 5.534159091370D-09-2.532740043800D+00
    2.028420567510D-06 3.604190191250D-03 2.697110176090D-06 5.153673721310D+03
    1.080000000000D+05-2.048909664150D-08-1.943055939870D+00-6.891787052160D-08
    9.426726181440D-01 3.232500000000D+02-2.970424226550D+00-8.756079011550D-09
    2.971552348510D-10 1.000000000000D+00 2.022000000000D+03 0.000000000000D+00
    2.800000000000D+00 0.000000000000D+00 3.725290298460D-09 1.130000000000D+02
    1.021800000000D+05 4.000000000000D+00
32 18 10  8  6  0  0.0-3.999527543780D-04 1.227817847390D-11 0.000000000000D+00
    6.100000000000D+01 3.518750000000D+01 4.255177099570D-09 1.077818440060D+00
    1.695007085800D-06 2.295930404220D-03 1.352839171890D-05 5.153722852710D+03
    1.080000000000D+05-1.676380634310D-08-3.046177212910D+00 2.421438694000D-08
    9.574841794710D-01 1.151250000000D+02-2.565639655290D+00-7.912829502740D-09
    3.225134326270D-10 1.000000000000D+00 2.022000000000D+03 0.000000000000D+00
    2.000000000000D+00 0.000000000000D+00 4.656612873080D-10 6.100000000000D+01
    1.008300000000D+05
 7 18 10  8  7 25  0.0 1.105573028330D-04-6.750155989720D-12 0.000000000000D+00
    1.210000000000D+02 4.772265625000D+01 5.035924052160D-09-1.763956151050D+00
    2.506189048290D-06 1.209112885410D-02 3.108754754070D-06 5.153635808140D+03
    1.131000000000D+05 1.434236764910D-07-1.974727676680D+00-4.656612873080D-08
    9.571419495360D-01 3.177070312500D+02-2.485697532790D+00-8.485475524430D-09
    5.128785063060D-10 1.000000000000D+00 2.022000000000D+03 0.000000000000D+00
    6.400000000000D+01 0.000000000000D+00-1.117587089540D-08 1.210000000000D+02
    1.080600000000D+05 4.000000000000D+00
30 18 10  8  7 25  0.0 1.326022902500D-05-5.432099214890D-12 0.000000000000D+00
    1.210000000000D+02 4.028906250000D+01 5.442905290280D-09-1.788474737790D+00
    2.115033566950D-06 3.604949277360D-03 2.807006239890D-06 5.153676036720D+03
    1.131000000000D+05 6.426125764850D-08-1.943101045290D+00-2.700835466380D-08
    9.426742076050D-01 3.161562500000D+02-2.970803842090D+00-8.787273809820D-09
    3.646580466140D-10 1.000000000000D+00 2.022000000000D+03 0.000000000000D+00
    3.200000000000D+01 0.000000000000D+00 3.725290298460D-09 1.210000000000D+02
    1.109100000000D+05 4.000000000000D+00
 1 18 10  8  7 30  0.0-9.770144242790D-05-4.860112312600D-12 0.000000000000D+00
    1.220000000000D+02 4.378906250000D+01 4.691445417530D-09-1.081842567090D+00
    2.360902726650D-06 8.123034960590D-03 3.726221621040D-06 5.153658685790D+03
    1.134000000000D+05 1.527369022370D-07 1.155304729800D+00 6.891787052160D-08
    9.724451230200D-01 3.129414062500D+02 6.990807463080D-01-8.385828516590D-09
    2.026870141560D-10 1.000000000000D+00 2.022000000000D+03 0.000000000000D+00
    1.280000000000D+02 0.000000000000D+00 5.587935447690D-09 1.220000000000D+02
    1.115340000000D+05 4.000000000000D+00
 3 18 10  8  7 30  0.0 1.462737564000D-04 4.718003765450D-12 0.000000000000D+00
    1.220000000000D+02-9.614062500000D+01 4.506794868950D-09-2.157045873570D+00
   -4.940666258340D-06 1.797550765330D-03 7.541850209240D-06 5.153665031210D+03
    1.134000000000D+05-7.543712854390D-08 2.198558797820D+00-5.587935447690D-08
    9.616014607320D-01 2.355273437500D+02 6.643361690910D-01-8.132067946440D-09
   -5.450227023830D-10 1.000000000000D+00 2.022000000000D+03 0.000000000000D+00
    5.120000000000D+02 0.000000000000D+00 1.862645149230D-09 1.220000000000D+02
    1.080120000000D+05 4.000000000000D+00
 5 18 10  8  7 30  0.0-1.176435034720D-06 3.659295089170D-13 0.000000000000D+00
    1.220000000000D+02-8.991406250000D+01 4.911811739530D-09 1.823506479980D+00
   -4.690140485760D-06 5.675259570130D-03 7.887370884420D-06 5.153794693820D+03
    1.134000000000D+05-8.195638656620D-08 2.174908313250D+00 1.024454832080D-08
    9.484626869810D-01 2.227265625000D+02 6.976593363350D-01-8.367792051010D-09
   -6.287761910520D-10 1.000000000000D+00 2.022000000000D+03 0.000000000000D+00
    1.024000000000D+03 0.000000000000D+00-1.117587089540D-08 1.220000000000D+02
    1.080600000000D+05 4.000000000000D+00
 6 18 10  8  7 30  0.0 3.527878434400D-04-5.556444193640D-12 0.000000000000D+00
    1.220000000000D+02 4.096875000000D+01 4.762876964370D-09-7.767588553300D-01
    2.182088792320D-06 9.860757272690D-04 3.571622073650D-06 5.153708337970D+03
    1.134000000000D+05 2.887099981310D-08 1.146986917000D+00 1.769512891770D-08
    9.721419625060D-01 3.179414062500D+02-1.157572745090D+00-8.439223597850D-09
    1.866149161180D-10 1.000000000000D+00 2.022000000000D+03 0.000000000000D+00
    2.560000000000D+02 0.000000000000D+00 4.656612873080D-09 1.220000000000D+02
    1.080120000000D+05 4.000000000000D+00
 8 18 10  8  7 30  0.0-1.178307575170D-04-1.346478484270D-12 0.000000000000D+00
    1.220000000000D+02 1.880859375000D+01 4.184638592710D-09 1.501700820210D+00
    1.134350895880D-06 3.606028330980D-03 1.337844878440D-05 5.153639405420D+03
    1.134000000000D+05 6.612390279770D-08 9.005505721180D-02-2.793967723850D-08
    9.701185661320D-01 1.240937500000D+02-4.142136744160D-01-7.799911253640D-09
    1.030400063160D-10 1.000000000000D+00 2.022000000000D+03 0.000000000000D+00
    5.120000000000D+02 0.000000000000D+00 5.122274160390D-09 1.220000000000D+02
    1.081080000000D+05 4.000000000000D+00
 9 18 10  8  7 30  0.0 5.018778610980D-04-2.462030579410D-12 0.000000000000D+00
    1.220000000000D+02 2.148437500000D+01 4.207139529960D-09 1.596359835690D+00
    1.399777829650D-06 1.216328702870D-03 1.255515962840D-05 5.153822917410D+03
    1.134000000000D+05 1.313164830210D-07-3.051830574250D+00 3.725290298460D-09
    9.531523949200D-01 1.350625000000D+02 1.686208154780D+00-7.859020858650D-09
    3.007268121930D-10 1.000000000000D+00 2.022000000000D+03 0.000000000000D+00
    2.048000000000D+03 0.000000000000D+00 9.313225746160D-10 1.220000000000D+02
    1.080120000000D+05 4.000000000000D+00
10 18 10  8  7 30  0.0 1.764045155140D-04-3.090860900560D-12 0.000000000000D+00
    1.220000000000D+02-1.062109375000D+02 4.566618789430D-09-3.049945183720D+00
   -5.458481609820D-06 3.842223261020D-03 8.172355592250D-06 5.153662840530D+03
    1.134000000000D+05 3.259629011150D-08 2.195183869210D+00-2.607703208920D-08
    9.616634592000D-01 2.211171875000D+02-2.810214501280D+00-8.161176301780D-09
   -5.730595845180D-10 1.000000000000D+00 2.022000000000D+03 0.000000000000D+00
    2.048000000000D+03 0.000000000000D+00 1.862645149230D-09 1.220000000000D+02
    1.080120000000D+05 4.000000000000D+00
12 18 10  8  7 30  0.0 3.013524110430D-04-2.785327524180D-12 0.000000000000D+00
    1.220000000000D+02-7.406250000000D+01 4.186781539110D-09-2.319614618610D+00
   -3.933906555180D-06 7.025954546410D-03 9.487383067610D-06 5.153761757960D+03
    1.134000000000D+05 1.657754182820D-07-8.787827819270D-01 2.980232238770D-08
    9.852374711870D-01 2.072617187500D+02 1.025084943660D+00-7.849913336430D-09
   -4.605548982460D-10 1.000000000000D+00 2.022000000000D+03 0.000000000000D+00
    1.280000000000D+02 0.000000000000D+00-1.257285475730D-08 1.220000000000D+02
    1.080600000000D+05 4.000000000000D+00
15 18 10  8  7 30  0.0-3.437043633310D-04 1.129762949860D-12 0.000000000000D+00
    1.220000000000D+02 4.356250000000D+01 4.870917178970D-09 2.028916461310D-01
    2.358108758930D-06 1.083801273490D-02 1.324340701100D-05 5.153584532460D+03
    1.134000000000D+05 1.490116119380D-08-3.125889494900D+00 2.253800630570D-07
    9.286836110340D-01 1.086875000000D+02 7.117741843890D-01-8.353505741640D-09
    2.325096849620D-10 1.000000000000D+00 2.022000000000D+03 0.000000000000D+00
    1.024000000000D+03 0.000000000000D+00-1.071020960810D-08 1.220000000000D+02
    1.126680000000D+05 4.000000000000D+00
17 18 10  8  7 30  0.0-4.673172952610D-05 4.565237077260D-12 0.000000000000D+00
    1.220000000000D+02 4.248046875000D+01 3.833195382260D-09 1.113848620910D+00
    2.279877662660D-06 1.266436395240D-02 1.218821853400D-05 5.153632010380D+03
    1.134000000000D+05-2.393499016760D-07 1.543506549700D-01-5.867332220080D-08
    9.836956689070D-01 1.581601562500D+02-1.771873656070D+00-7.859378016380D-09
    1.839362331110D-10 1.000000000000D+00 2.022000000000D+03 0.000000000000D+00
    1.024000000000D+03 0.000000000000D+00-1.117587089540D-08 1.220000000000D+02
    1.151160000000D+05 4.000000000000D+00
24 18 10  8  7 30  0.0-5.645156488750D-05-5.186961971050D-13 0.000000000000D+00
    1.220000000000D+02 5.469921875000D+01 5.574875073070D-09-7.003386810370D-01
    2.869404852390D-06 7.372673717330D-03 3.067776560780D-06 5.153617710110D+03
    1.134000000000D+05 1.341104507450D-07-2.036791321540D+00 4.284083843230D-08
    9.402904374540D-01 3.101757812500D+02 5.356583797960D-01-8.906207335310D-09
    3.937664019510D-10 1.000000000000D+00 2.022000000000D+03 0.000000000000D+00
    2.048000000000D+03 0.000000000000D+00 2.793967723850D-09 1.220000000000D+02
    1.105080000000D+05 4.000000000000D+00
